{
  "type": "FeatureCollection",
  "features": [
    {
      "type": "Feature",
      "properties": {
        "norad_id": 45807,
        "name": "BEIDOU-3 G3 (C61)",
        "group": "gnss",
        "lat": -0.09054147557199271,
        "lon": 63.51958977406618,
        "alt_km": 35768.24634262574,
        "timestamp": "2025-12-22T14:45:57.645688+00:00",
        "meta_object_name": "BEIDOU-3 G3 (C61)",
        "meta_object_id": "2020-040A",
        "meta_epoch": "2025-12-22T06:50:21.967872",
        "meta_mean_motion": 1.00269404,
        "meta_eccentricity": 0.00065322,
        "meta_inclination": 2.013,
        "meta_ra_of_asc_node": 66.6638,
        "meta_arg_of_pericenter": 309.3195,
        "meta_mean_anomaly": 288.2645,
        "meta_ephemeris_type": 0,
        "meta_classification_type": "U",
        "meta_norad_cat_id": 45807,
        "meta_element_set_no": 999,
        "meta_rev_at_epoch": 2029,
        "meta_bstar": 0,
        "meta_mean_motion_dot": -3.33e-06,
        "meta_mean_motion_ddot": 0,
        "tle_line1": "1 45807U 20040A   25356.28497648 -.00000333  00000+0  00000+0 0  9997",
        "tle_line2": "2 45807   2.0130  66.6638 0006532 309.3195 288.2645  1.00269404 20297"
      },
      "geometry": {
        "type": "Point",
        "coordinates": [
          63.51958977406618,
          -0.09054147557199271
        ]
      }
    },
    {
      "type": "Feature",
      "properties": {
        "norad_id": 45854,
        "name": "GPS BIII-3  (PRN 23)",
        "group": "gnss",
        "lat": -56.13903943774471,
        "lon": -44.117011840515076,
        "alt_km": 20136.934080000556,
        "timestamp": "2025-12-22T14:45:57.645705+00:00",
        "meta_object_name": "GPS BIII-3  (PRN 23)",
        "meta_object_id": "2020-041A",
        "meta_epoch": "2025-12-20T05:44:36.632832",
        "meta_mean_motion": 2.00561934,
        "meta_eccentricity": 0.00606224,
        "meta_inclination": 56.5518,
        "meta_ra_of_asc_node": 35.8938,
        "meta_arg_of_pericenter": 203.675,
        "meta_mean_anomaly": 155.7759,
        "meta_ephemeris_type": 0,
        "meta_classification_type": "U",
        "meta_norad_cat_id": 45854,
        "meta_element_set_no": 999,
        "meta_rev_at_epoch": 4044,
        "meta_bstar": 0,
        "meta_mean_motion_dot": -5.8e-07,
        "meta_mean_motion_ddot": 0,
        "tle_line1": "1 45854U 20041A   25354.23931288 -.00000058  00000+0  00000+0 0  9990",
        "tle_line2": "2 45854  56.5518  35.8938 0060622 203.6750 155.7759  2.00561934 40444"
      },
      "geometry": {
        "type": "Point",
        "coordinates": [
          -44.117011840515076,
          -56.13903943774471
        ]
      }
    },
    {
      "type": "Feature",
      "properties": {
        "norad_id": 46114,
        "name": "GALAXY 30 (WAAS/PRN 135)",
        "group": "gnss",
        "lat": 0.0006069481312809334,
        "lon": -172.11661457442918,
        "alt_km": 35784.906943315764,
        "timestamp": "2025-12-22T14:45:57.645717+00:00",
        "meta_object_name": "GALAXY 30 (WAAS/PRN 135)",
        "meta_object_id": "2020-056C",
        "meta_epoch": "2025-12-22T05:43:20.885088",
        "meta_mean_motion": 1.00270047,
        "meta_eccentricity": 0.00020003,
        "meta_inclination": 0.0177,
        "meta_ra_of_asc_node": 10.447,
        "meta_arg_of_pericenter": 256.2295,
        "meta_mean_anomaly": 145.2144,
        "meta_ephemeris_type": 0,
        "meta_classification_type": "U",
        "meta_norad_cat_id": 46114,
        "meta_element_set_no": 999,
        "meta_rev_at_epoch": 1951,
        "meta_bstar": 0,
        "meta_mean_motion_dot": 5.9e-07,
        "meta_mean_motion_ddot": 0,
        "tle_line1": "1 46114U 20056C   25356.23843617  .00000059  00000+0  00000+0 0  9996",
        "tle_line2": "2 46114   0.0177  10.4470 0002000 256.2295 145.2144  1.00270047 19510"
      },
      "geometry": {
        "type": "Point",
        "coordinates": [
          -172.11661457442918,
          0.0006069481312809334
        ]
      }
    },
    {
      "type": "Feature",
      "properties": {
        "norad_id": 46805,
        "name": "COSMOS 2547 (705K)",
        "group": "gnss",
        "lat": 64.41360182583347,
        "lon": -78.39840764936477,
        "alt_km": 19135.177756609526,
        "timestamp": "2025-12-22T14:45:57.645731+00:00",
        "meta_object_name": "COSMOS 2547 (705K)",
        "meta_object_id": "2020-075A",
        "meta_epoch": "2025-12-22T00:46:38.571168",
        "meta_mean_motion": 2.13100252,
        "meta_eccentricity": 0.000611,
        "meta_inclination": 64.5967,
        "meta_ra_of_asc_node": 198.3861,
        "meta_arg_of_pericenter": 227.6651,
        "meta_mean_anomaly": 132.3515,
        "meta_ephemeris_type": 0,
        "meta_classification_type": "U",
        "meta_norad_cat_id": 46805,
        "meta_element_set_no": 999,
        "meta_rev_at_epoch": 4013,
        "meta_bstar": 0,
        "meta_mean_motion_dot": 9.6e-07,
        "meta_mean_motion_ddot": 0,
        "tle_line1": "1 46805U 20075A   25356.03239087  .00000096  00000+0  00000+0 0  9993",
        "tle_line2": "2 46805  64.5967 198.3861 0006110 227.6651 132.3515  2.13100252 40139"
      },
      "geometry": {
        "type": "Point",
        "coordinates": [
          -78.39840764936477,
          64.41360182583347
        ]
      }
    },
    {
      "type": "Feature",
      "properties": {
        "norad_id": 46826,
        "name": "GPS BIII-4  (PRN 14)",
        "group": "gnss",
        "lat": -47.97798032289726,
        "lon": 91.69464711712129,
        "alt_km": 20060.825277816137,
        "timestamp": "2025-12-22T14:45:57.645742+00:00",
        "meta_object_name": "GPS BIII-4  (PRN 14)",
        "meta_object_id": "2020-078A",
        "meta_epoch": "2025-12-16T01:06:13.902336",
        "meta_mean_motion": 2.00566891,
        "meta_eccentricity": 0.0064755,
        "meta_inclination": 54.0145,
        "meta_ra_of_asc_node": 218.2068,
        "meta_arg_of_pericenter": 203.3828,
        "meta_mean_anomaly": 339.3936,
        "meta_ephemeris_type": 0,
        "meta_classification_type": "U",
        "meta_norad_cat_id": 46826,
        "meta_element_set_no": 999,
        "meta_rev_at_epoch": 3783,
        "meta_bstar": 0,
        "meta_mean_motion_dot": 6.7e-07,
        "meta_mean_motion_ddot": 0,
        "tle_line1": "1 46826U 20078A   25350.04599424  .00000067  00000+0  00000+0 0  9996",
        "tle_line2": "2 46826  54.0145 218.2068 0064755 203.3828 339.3936  2.00566891 37831"
      },
      "geometry": {
        "type": "Point",
        "coordinates": [
          91.69464711712129,
          -47.97798032289726
        ]
      }
    },
    {
      "type": "Feature",
      "properties": {
        "norad_id": 48859,
        "name": "GPS BIII-5  (PRN 11)",
        "group": "gnss",
        "lat": 50.94860276215665,
        "lon": 38.34793436507279,
        "alt_km": 20239.681856855583,
        "timestamp": "2025-12-22T14:45:57.645754+00:00",
        "meta_object_name": "GPS BIII-5  (PRN 11)",
        "meta_object_id": "2021-054A",
        "meta_epoch": "2025-12-08T04:14:32.423424",
        "meta_mean_motion": 2.00553627,
        "meta_eccentricity": 0.0024678,
        "meta_inclination": 55.2581,
        "meta_ra_of_asc_node": 340.1367,
        "meta_arg_of_pericenter": 233.3993,
        "meta_mean_anomaly": 212.8594,
        "meta_ephemeris_type": 0,
        "meta_classification_type": "U",
        "meta_norad_cat_id": 48859,
        "meta_element_set_no": 999,
        "meta_rev_at_epoch": 3292,
        "meta_bstar": 0,
        "meta_mean_motion_dot": -8.6e-07,
        "meta_mean_motion_ddot": 0,
        "tle_line1": "1 48859U 21054A   25342.17676416 -.00000086  00000+0  00000+0 0  9993",
        "tle_line2": "2 48859  55.2581 340.1367 0024678 233.3993 212.8594  2.00553627 32922"
      },
      "geometry": {
        "type": "Point",
        "coordinates": [
          38.34793436507279,
          50.94860276215665
        ]
      }
    },
    {
      "type": "Feature",
      "properties": {
        "norad_id": 49336,
        "name": "QZS-1R (QZSS/PRN 196)",
        "group": "gnss",
        "lat": 8.041970625626515,
        "lon": 92.97431377760638,
        "alt_km": 36221.978013238026,
        "timestamp": "2025-12-22T14:45:57.645765+00:00",
        "meta_object_name": "QZS-1R (QZSS/PRN 196)",
        "meta_object_id": "2021-096A",
        "meta_epoch": "2025-12-21T13:52:43.837824",
        "meta_mean_motion": 1.00254729,
        "meta_eccentricity": 0.0756914,
        "meta_inclination": 37.0948,
        "meta_ra_of_asc_node": 82.2293,
        "meta_arg_of_pericenter": 271.4815,
        "meta_mean_anomaly": 79.0907,
        "meta_ephemeris_type": 0,
        "meta_classification_type": "U",
        "meta_norad_cat_id": 49336,
        "meta_element_set_no": 999,
        "meta_rev_at_epoch": 1522,
        "meta_bstar": 0,
        "meta_mean_motion_dot": -2.54e-06,
        "meta_mean_motion_ddot": 0,
        "tle_line1": "1 49336U 21096A   25355.57828516 -.00000254  00000+0  00000+0 0  9995",
        "tle_line2": "2 49336  37.0948  82.2293 0756914 271.4815  79.0907  1.00254729 15226"
      },
      "geometry": {
        "type": "Point",
        "coordinates": [
          92.97431377760638,
          8.041970625626515
        ]
      }
    }
  ]
}